{
    "links": {
        "self": "http://www.neowsapp.com/rest/v1/neo/3825583?api_key=iIulBulltgU6a56xZRHN4H3l9WmuAYTsLGpBGhQ2"
    },
    "id": "3825583",
    "neo_reference_id": "3825583",
    "name": "(2018 NN1)",
    "designation": "2018 NN1",
    "nasa_jpl_url": "http://ssd.jpl.nasa.gov/sbdb.cgi?sstr=3825583",
    "absolute_magnitude_h": 22.4,
    "estimated_diameter": {
        "kilometers": {
            "estimated_diameter_min": 0.0880146521,
            "estimated_diameter_max": 0.1968067451
        },
        "meters": {
            "estimated_diameter_min": 88.0146520901,
            "estimated_diameter_max": 196.8067450894
        },
        "miles": {
            "estimated_diameter_min": 0.0546897524,
            "estimated_diameter_max": 0.122290004
        },
        "feet": {
            "estimated_diameter_min": 288.7619911632,
            "estimated_diameter_max": 645.6914415591
        }
    },
    "is_potentially_hazardous_asteroid": false,
    "close_approach_data": [
        {
            "close_approach_date": "2013-04-13",
            "close_approach_date_full": "2013-Apr-13 23:26",
            "epoch_date_close_approach": 1365895560000,
            "relative_velocity": {
                "kilometers_per_second": "13.0365808068",
                "kilometers_per_hour": "46931.6909043443",
                "miles_per_hour": "29161.5276066466"
            },
            "miss_distance": {
                "astronomical": "0.1656172235",
                "lunar": "64.4250999415",
                "kilometers": "24775983.870913945",
                "miles": "15395082.497924641"
            },
            "orbiting_body": "Earth"
        },
        {
            "close_approach_date": "2018-06-13",
            "close_approach_date_full": "2018-Jun-13 01:08",
            "epoch_date_close_approach": 1528852080000,
            "relative_velocity": {
                "kilometers_per_second": "10.8780954773",
                "kilometers_per_hour": "39161.1437181634",
                "miles_per_hour": "24333.2117730999"
            },
            "miss_distance": {
                "astronomical": "0.1464487357",
                "lunar": "56.9685581873",
                "kilometers": "21908418.924912959",
                "miles": "13613260.2646744742"
            },
            "orbiting_body": "Earth"
        },
        {
            "close_approach_date": "2089-04-17",
            "close_approach_date_full": "2089-Apr-17 12:20",
            "epoch_date_close_approach": 3764578800000,
            "relative_velocity": {
                "kilometers_per_second": "12.3635981025",
                "kilometers_per_hour": "44508.9531690594",
                "miles_per_hour": "27656.1325955192"
            },
            "miss_distance": {
                "astronomical": "0.1366132344",
                "lunar": "53.1425481816",
                "kilometers": "20437048.880050728",
                "miles": "12698993.3139189264"
            },
            "orbiting_body": "Earth"
        },
        {
            "close_approach_date": "2094-06-16",
            "close_approach_date_full": "2094-Jun-16 13:10",
            "epoch_date_close_approach": 3927532200000,
            "relative_velocity": {
                "kilometers_per_second": "11.17221364",
                "kilometers_per_hour": "40219.9691038441",
                "miles_per_hour": "24991.1246912191"
            },
            "miss_distance": {
                "astronomical": "0.1622110684",
                "lunar": "63.1001056076",
                "kilometers": "24266430.323064308",
                "miles": "15078460.6052431304"
            },
            "orbiting_body": "Earth"
        },
        {
            "close_approach_date": "2175-07-24",
            "close_approach_date_full": "2175-Jul-24 10:46",
            "epoch_date_close_approach": 6486864360000,
            "relative_velocity": {
                "kilometers_per_second": "20.9429313507",
                "kilometers_per_hour": "75394.5528625812",
                "miles_per_hour": "46847.2431384189"
            },
            "miss_distance": {
                "astronomical": "0.4865667846",
                "lunar": "189.2744792094",
                "kilometers": "72789354.588908802",
                "miles": "45229207.6353213876"
            },
            "orbiting_body": "Earth"
        }
    ],
    "orbital_data": {
        "orbit_id": "4",
        "orbit_determination_date": "2020-04-18 07:41:41",
        "first_observation_date": "2018-06-22",
        "last_observation_date": "2018-08-02",
        "data_arc_in_days": 41,
        "observations_used": 27,
        "orbit_uncertainty": "7",
        "minimum_orbit_intersection": ".0127693",
        "jupiter_tisserand_invariant": "3.834",
        "epoch_osculation": "2459000.5",
        "eccentricity": ".4659011803433897",
        "semi_major_axis": "1.858393050366912",
        "inclination": "12.17674359467535",
        "ascending_node_longitude": "229.0783896298644",
        "orbital_period": "925.3473507724539",
        "perihelion_distance": ".9925655346590154",
        "perihelion_argument": "8.970696661566269",
        "aphelion_distance": "2.724220566074809",
        "perihelion_time": "2459192.870742416243",
        "mean_anomaly": "285.1594904205037",
        "mean_motion": ".3890430979236955",
        "equinox": "J2000",
        "orbit_class": {
            "orbit_class_type": "APO",
            "orbit_class_description": "Near-Earth asteroid orbits which cross the Earth’s orbit similar to that of 1862 Apollo",
            "orbit_class_range": "a (semi-major axis) > 1.0 AU; q (perihelion) < 1.017 AU"
        }
    },
    "is_sentry_object": false
}